ONEWEB-0249             
1 48967U 21060A   25235.90399334  .00000135  00000+0  32043-3 0  9993
2 48967  87.9014 288.0378 0001856  96.2560 263.8783 13.16593594200497
ONEWEB-0250             
1 48968U 21060B   25235.88674778  .00000024  00000+0  24688-4 0  9993
2 48968  87.9013 286.7713 0001166 117.1988 242.9267 13.25812085200827
ONEWEB-0252             
1 48970U 21060D   25235.85966385 -.00000019  00000+0 -82691-4 0  9995
2 48970  87.9014 288.0396 0002303  92.4839 267.6556 13.16594028200534
ONEWEB-0253             
1 48971U 21060E   25235.69658115 -.00000031  00000+0 -11462-3 0  9998
2 48971  87.9019 288.0757 0001875  89.2894 270.8452 13.16592896200441
ONEWEB-0254             
1 48972U 21060F   25235.85806188 -.00000008  00000+0 -54497-4 0  9992
2 48972  87.9017 288.0299 0001577  87.6727 272.4585 13.16592391200464
ONEWEB-0255             
1 48973U 21060G   25235.89607488  .00000098  00000+0  22205-3 0  9997
2 48973  87.9007 288.0507 0001766  90.2887 269.8447 13.16593055200547
ONEWEB-0256             
1 48974U 21060H   25235.92219574  .00000089  00000+0  19852-3 0  9991
2 48974  87.9009 288.0562 0002107  95.0010 265.1362 13.16594536200519
ONEWEB-0257             
1 48975U 21060J   25235.87865893 -.00000036  00000+0 -12682-3 0  9995
2 48975  87.9013 288.0328 0001922  89.2143 270.9208 13.16593326200464
